JILIN-1 GAOFEN 3A       
1 44312U 19032C   26192.91379895  .00005717  00000+0  18452-3 0  9992
2 44312  44.9732 220.7964 0004695  80.0205 280.1210 15.33149443391637
JILIN-1 GAOFEN 2A       
1 44777U 19075A   26192.89723660  .00008376  00000+0  21232-3 0  9998
2 44777  97.4966 277.2747 0005508   7.5523 352.5805 15.39957140368681
JILIN-1 GAOFEN 2B       
1 44836U 19086A   26192.95190018  .00003707  00000+0  17014-3 0  9994
2 44836  97.4878 264.7902 0012956 227.9100 132.1035 15.20976921364251
JILIN-1 GAOFEN 3E       
1 46457U 20065D   26192.89952605  .00047532  00000+0  44777-3 0  9995
2 46457  97.2223 246.1318 0010698  82.8621 277.3856 15.66882312323625
JILIN-1 GAOFEN 3F       
1 46458U 20065E   26192.90726672  .00039825  00000+0  42658-3 0  9993
2 46458  97.2179 243.3490 0012116  69.0537 291.2018 15.63656244323564
JILIN-1 GAOFEN 3G       
1 46459U 20065F   26192.94714692  .00084710  00000+0  53551-3 0  9994
2 46459  97.2236 250.6460 0004952 291.8587  68.2152 15.76335528323830
JILIN-1 GAOFEN 3H       
1 46460U 20065G   26192.91750274  .00064482  00000+0  49598-3 0  9999
2 46460  97.2182 246.7755 0005966 213.4118 146.6770 15.71810640323768
JILIN-1 GAOFEN 2D       
1 49256U 21086A   26192.93155555  .00002363  00000+0  14416-3 0  9993
2 49256  97.6501 315.6387 0034286  61.5002 298.9673 15.10851228264454
JILIN-1 GAOFEN 2F       
1 49338U 21097A   26192.92078952  .00001944  00000+0  13030-3 0  9995
2 49338  97.6720 319.0651 0019655 140.1901 220.0773 15.07931970260042
JILIN-1 GAOFEN 3D27     
1 52444U 22048B   26192.94107487  .00126250  00000+0  60967-3 0  9991
2 52444  97.5730 309.2487 0005010 252.7834 107.2886 15.82206266233381
JILIN-1 GAOFEN 3D28     
1 52445U 22048C   26192.94470457  .00169068  00000+0  64895-3 0  9990
2 52445  97.5669 309.5313 0004780 248.9727 111.1033 15.86942993233448
JILIN-1 GAOFEN 3D29     
1 52446U 22048D   26192.92642223  .00128478  00000+0  61490-3 0  9999
2 52446  97.5721 309.5973 0004129 233.6081 126.4806 15.82399332233403
JILIN-1 GAOFEN 3D31     
1 52448U 22048F   26192.91317765  .00231521  22230-4  69397-3 0  9992
2 52448  97.5684 310.8785 0005131 241.9800 118.0954 15.92295407233505
JILIN-1 GAOFEN 03D09    
1 53445U 22098B   26192.96984505  .00056619  00000+0  47279-3 0  9996
2 53445  97.5618 324.5640 0003235 243.8207 116.2722 15.69879171218514
JILIN-1 GAOFEN 03D43    
1 53448U 22098E   26192.95344359  .00065769  00000+0  47035-3 0  9991
2 53448  97.5599 325.6885 0003430 238.0266 122.0665 15.73545916218586
JILIN-1 GAOFEN 03D08    
1 54251U 22155A   26192.95919995  .00044164  00000+0  41113-3 0  9999
2 54251  97.6223 340.3921 0004084 239.2377 120.8481 15.67258837203695
