{"fetched_at":"2026-07-12T07:15:44.940Z","source":"https://celestrak.org/NORAD/elements/gp.php?NAME=JILIN&FORMAT=JSON","constellation":"jilin-1-gaofen","records":[{"OBJECT_NAME":"JILIN-1 GAOFEN 3A","OBJECT_ID":"2019-032C","EPOCH":"2026-07-11T21:55:52.229280","CLASSIFICATION_TYPE":"U","MEAN_MOTION":15.33149443,"ECCENTRICITY":0.00046959,"INCLINATION":44.9732,"RA_OF_ASC_NODE":220.7964,"ARG_OF_PERICENTER":80.0205,"MEAN_ANOMALY":280.121,"EPHEMERIS_TYPE":0,"NORAD_CAT_ID":44312,"ELEMENT_SET_NO":999,"REV_AT_EPOCH":39163,"BSTAR":0.00018451877,"MEAN_MOTION_DOT":0.00005717,"MEAN_MOTION_DDOT":0},{"OBJECT_NAME":"JILIN-1 GAOFEN 2A","OBJECT_ID":"2019-075A","EPOCH":"2026-07-11T21:32:01.242240","CLASSIFICATION_TYPE":"U","MEAN_MOTION":15.3995714,"ECCENTRICITY":0.00055089,"INCLINATION":97.4966,"RA_OF_ASC_NODE":277.2747,"ARG_OF_PERICENTER":7.5523,"MEAN_ANOMALY":352.5805,"EPHEMERIS_TYPE":0,"NORAD_CAT_ID":44777,"ELEMENT_SET_NO":999,"REV_AT_EPOCH":36868,"BSTAR":0.00021232403,"MEAN_MOTION_DOT":0.00008376,"MEAN_MOTION_DDOT":0},{"OBJECT_NAME":"JILIN-1 GAOFEN 2B","OBJECT_ID":"2019-086A","EPOCH":"2026-07-11T22:50:44.175552","CLASSIFICATION_TYPE":"U","MEAN_MOTION":15.20976921,"ECCENTRICITY":0.00129564,"INCLINATION":97.4878,"RA_OF_ASC_NODE":264.7902,"ARG_OF_PERICENTER":227.91,"MEAN_ANOMALY":132.1035,"EPHEMERIS_TYPE":0,"NORAD_CAT_ID":44836,"ELEMENT_SET_NO":999,"REV_AT_EPOCH":36425,"BSTAR":0.00017013627,"MEAN_MOTION_DOT":0.00003707,"MEAN_MOTION_DDOT":0},{"OBJECT_NAME":"JILIN-1 GAOFEN 3E","OBJECT_ID":"2020-065D","EPOCH":"2026-07-11T21:35:19.050720","CLASSIFICATION_TYPE":"U","MEAN_MOTION":15.66882312,"ECCENTRICITY":0.00106986,"INCLINATION":97.2223,"RA_OF_ASC_NODE":246.1318,"ARG_OF_PERICENTER":82.8621,"MEAN_ANOMALY":277.3856,"EPHEMERIS_TYPE":0,"NORAD_CAT_ID":46457,"ELEMENT_SET_NO":999,"REV_AT_EPOCH":32362,"BSTAR":0.00044777229,"MEAN_MOTION_DOT":0.00047532,"MEAN_MOTION_DDOT":0},{"OBJECT_NAME":"JILIN-1 GAOFEN 3F","OBJECT_ID":"2020-065E","EPOCH":"2026-07-11T21:46:27.844608","CLASSIFICATION_TYPE":"U","MEAN_MOTION":15.63656244,"ECCENTRICITY":0.00121165,"INCLINATION":97.2179,"RA_OF_ASC_NODE":243.349,"ARG_OF_PERICENTER":69.0537,"MEAN_ANOMALY":291.2018,"EPHEMERIS_TYPE":0,"NORAD_CAT_ID":46458,"ELEMENT_SET_NO":999,"REV_AT_EPOCH":32356,"BSTAR":0.00042658464,"MEAN_MOTION_DOT":0.00039825,"MEAN_MOTION_DDOT":0},{"OBJECT_NAME":"JILIN-1 GAOFEN 3G","OBJECT_ID":"2020-065F","EPOCH":"2026-07-11T22:43:53.493888","CLASSIFICATION_TYPE":"U","MEAN_MOTION":15.76335528,"ECCENTRICITY":0.00049525,"INCLINATION":97.2236,"RA_OF_ASC_NODE":250.646,"ARG_OF_PERICENTER":291.8587,"MEAN_ANOMALY":68.2152,"EPHEMERIS_TYPE":0,"NORAD_CAT_ID":46459,"ELEMENT_SET_NO":999,"REV_AT_EPOCH":32383,"BSTAR":0.00053550713,"MEAN_MOTION_DOT":0.0008471,"MEAN_MOTION_DDOT":0},{"OBJECT_NAME":"JILIN-1 GAOFEN 3H","OBJECT_ID":"2020-065G","EPOCH":"2026-07-11T22:01:12.236736","CLASSIFICATION_TYPE":"U","MEAN_MOTION":15.7181064,"ECCENTRICITY":0.00059668,"INCLINATION":97.2182,"RA_OF_ASC_NODE":246.7755,"ARG_OF_PERICENTER":213.4118,"MEAN_ANOMALY":146.677,"EPHEMERIS_TYPE":0,"NORAD_CAT_ID":46460,"ELEMENT_SET_NO":999,"REV_AT_EPOCH":32376,"BSTAR":0.00049597897,"MEAN_MOTION_DOT":0.00064482,"MEAN_MOTION_DDOT":0},{"OBJECT_NAME":"JILIN-1 GAOFEN 2D","OBJECT_ID":"2021-086A","EPOCH":"2026-07-11T22:21:26.399520","CLASSIFICATION_TYPE":"U","MEAN_MOTION":15.10851228,"ECCENTRICITY":0.00342863,"INCLINATION":97.6501,"RA_OF_ASC_NODE":315.6387,"ARG_OF_PERICENTER":61.5002,"MEAN_ANOMALY":298.9673,"EPHEMERIS_TYPE":0,"NORAD_CAT_ID":49256,"ELEMENT_SET_NO":999,"REV_AT_EPOCH":26445,"BSTAR":0.00014416086,"MEAN_MOTION_DOT":0.00002363,"MEAN_MOTION_DDOT":0},{"OBJECT_NAME":"JILIN-1 GAOFEN 2F","OBJECT_ID":"2021-097A","EPOCH":"2026-07-11T22:05:56.214528","CLASSIFICATION_TYPE":"U","MEAN_MOTION":15.0793197,"ECCENTRICITY":0.00196551,"INCLINATION":97.672,"RA_OF_ASC_NODE":319.0651,"ARG_OF_PERICENTER":140.1901,"MEAN_ANOMALY":220.0773,"EPHEMERIS_TYPE":0,"NORAD_CAT_ID":49338,"ELEMENT_SET_NO":999,"REV_AT_EPOCH":26004,"BSTAR":0.00013029505,"MEAN_MOTION_DOT":0.00001944,"MEAN_MOTION_DDOT":0},{"OBJECT_NAME":"JILIN-1 GAOFEN 3D27","OBJECT_ID":"2022-048B","EPOCH":"2026-07-11T22:35:08.868768","CLASSIFICATION_TYPE":"U","MEAN_MOTION":15.82206266,"ECCENTRICITY":0.00050102,"INCLINATION":97.573,"RA_OF_ASC_NODE":309.2487,"ARG_OF_PERICENTER":252.7834,"MEAN_ANOMALY":107.2886,"EPHEMERIS_TYPE":0,"NORAD_CAT_ID":52444,"ELEMENT_SET_NO":999,"REV_AT_EPOCH":23338,"BSTAR":0.0006096689,"MEAN_MOTION_DOT":0.0012625,"MEAN_MOTION_DDOT":0},{"OBJECT_NAME":"JILIN-1 GAOFEN 3D28","OBJECT_ID":"2022-048C","EPOCH":"2026-07-11T22:40:22.474848","CLASSIFICATION_TYPE":"U","MEAN_MOTION":15.86942993,"ECCENTRICITY":0.00047809,"INCLINATION":97.5669,"RA_OF_ASC_NODE":309.5313,"ARG_OF_PERICENTER":248.9727,"MEAN_ANOMALY":111.1033,"EPHEMERIS_TYPE":0,"NORAD_CAT_ID":52445,"ELEMENT_SET_NO":999,"REV_AT_EPOCH":23344,"BSTAR":0.00064895422,"MEAN_MOTION_DOT":0.00169068,"MEAN_MOTION_DDOT":0},{"OBJECT_NAME":"JILIN-1 GAOFEN 3D29","OBJECT_ID":"2022-048D","EPOCH":"2026-07-11T22:14:02.880672","CLASSIFICATION_TYPE":"U","MEAN_MOTION":15.82399332,"ECCENTRICITY":0.00041294,"INCLINATION":97.5721,"RA_OF_ASC_NODE":309.5973,"ARG_OF_PERICENTER":233.6081,"MEAN_ANOMALY":126.4806,"EPHEMERIS_TYPE":0,"NORAD_CAT_ID":52446,"ELEMENT_SET_NO":999,"REV_AT_EPOCH":23340,"BSTAR":0.0006148951,"MEAN_MOTION_DOT":0.00128478,"MEAN_MOTION_DDOT":0},{"OBJECT_NAME":"JILIN-1 GAOFEN 3D31","OBJECT_ID":"2022-048F","EPOCH":"2026-07-11T21:54:58.548960","CLASSIFICATION_TYPE":"U","MEAN_MOTION":15.92295407,"ECCENTRICITY":0.00051312,"INCLINATION":97.5684,"RA_OF_ASC_NODE":310.8785,"ARG_OF_PERICENTER":241.98,"MEAN_ANOMALY":118.0954,"EPHEMERIS_TYPE":0,"NORAD_CAT_ID":52448,"ELEMENT_SET_NO":999,"REV_AT_EPOCH":23350,"BSTAR":0.0006939709,"MEAN_MOTION_DOT":0.00231521,"MEAN_MOTION_DDOT":0.000022229535},{"OBJECT_NAME":"JILIN-1 GAOFEN 03D09","OBJECT_ID":"2022-098B","EPOCH":"2026-07-11T23:16:34.612320","CLASSIFICATION_TYPE":"U","MEAN_MOTION":15.69879171,"ECCENTRICITY":0.00032356,"INCLINATION":97.5618,"RA_OF_ASC_NODE":324.564,"ARG_OF_PERICENTER":243.8207,"MEAN_ANOMALY":116.2722,"EPHEMERIS_TYPE":0,"NORAD_CAT_ID":53445,"ELEMENT_SET_NO":999,"REV_AT_EPOCH":21851,"BSTAR":0.00047279393,"MEAN_MOTION_DOT":0.00056619,"MEAN_MOTION_DDOT":0},{"OBJECT_NAME":"JILIN-1 GAOFEN 03D43","OBJECT_ID":"2022-098E","EPOCH":"2026-07-11T22:52:57.526176","CLASSIFICATION_TYPE":"U","MEAN_MOTION":15.73545916,"ECCENTRICITY":0.00034302,"INCLINATION":97.5599,"RA_OF_ASC_NODE":325.6885,"ARG_OF_PERICENTER":238.0266,"MEAN_ANOMALY":122.0665,"EPHEMERIS_TYPE":0,"NORAD_CAT_ID":53448,"ELEMENT_SET_NO":999,"REV_AT_EPOCH":21858,"BSTAR":0.00047034527,"MEAN_MOTION_DOT":0.00065769,"MEAN_MOTION_DDOT":0},{"OBJECT_NAME":"JILIN-1 GAOFEN 03D08","OBJECT_ID":"2022-155A","EPOCH":"2026-07-11T23:01:14.875680","CLASSIFICATION_TYPE":"U","MEAN_MOTION":15.67258837,"ECCENTRICITY":0.00040843,"INCLINATION":97.6223,"RA_OF_ASC_NODE":340.3921,"ARG_OF_PERICENTER":239.2377,"MEAN_ANOMALY":120.8481,"EPHEMERIS_TYPE":0,"NORAD_CAT_ID":54251,"ELEMENT_SET_NO":999,"REV_AT_EPOCH":20369,"BSTAR":0.00041112959,"MEAN_MOTION_DOT":0.00044164,"MEAN_MOTION_DDOT":0}]}
